CCSDS_OMM_VERS = 2.0
CREATION_DATE  = 
ORIGINATOR     = 

OBJECT_NAME    = STARLINK-36419
OBJECT_ID      = 2026-016Z
CENTER_NAME    = EARTH
REF_FRAME      = TEME
TIME_SYSTEM    = UTC
MEAN_ELEMENT_THEORY = SGP/SGP4

EPOCH          = 2026-02-05T22:00:03.000096
MEAN_MOTION    = 15.86461003
ECCENTRICITY   = .00016881
INCLINATION    = 97.2768
RA_OF_ASC_NODE = 95.7757
ARG_OF_PERICENTER = 75.8494
MEAN_ANOMALY   = 75.2974

EPHEMERIS_TYPE = 0
CLASSIFICATION_TYPE = U
NORAD_CAT_ID   = 67584
ELEMENT_SET_NO = 999
REV_AT_EPOCH   = 294
BSTAR          = -.7986897E-2
MEAN_MOTION_DOT = -.1731855E-1
MEAN_MOTION_DDOT = 0

CCSDS_OMM_VERS = 2.0
CREATION_DATE  = 
ORIGINATOR     = 

OBJECT_NAME    = STARLINK-36560
OBJECT_ID      = 2026-016AA
CENTER_NAME    = EARTH
REF_FRAME      = TEME
TIME_SYSTEM    = UTC
MEAN_ELEMENT_THEORY = SGP/SGP4

EPOCH          = 2026-02-05T22:00:03.000096
MEAN_MOTION    = 15.86792981
ECCENTRICITY   = .00015909
INCLINATION    = 97.2761
RA_OF_ASC_NODE = 95.7789
ARG_OF_PERICENTER = 78.5969
MEAN_ANOMALY   = 80.4666

EPHEMERIS_TYPE = 0
CLASSIFICATION_TYPE = U
NORAD_CAT_ID   = 67585
ELEMENT_SET_NO = 999
REV_AT_EPOCH   = 288
BSTAR          = -.78459592E-2
MEAN_MOTION_DOT = -.172956E-1
MEAN_MOTION_DDOT = 0

CCSDS_OMM_VERS = 2.0
CREATION_DATE  = 
ORIGINATOR     = 

OBJECT_NAME    = CZ-2C DEB
OBJECT_ID      = 2026-009C
CENTER_NAME    = EARTH
REF_FRAME      = TEME
TIME_SYSTEM    = UTC
MEAN_ELEMENT_THEORY = SGP/SGP4

EPOCH          = 2026-02-05T17:55:12.957600
MEAN_MOTION    = 15.11795830
ECCENTRICITY   = .0111444
INCLINATION    = 97.2266
RA_OF_ASC_NODE = 110.3844
ARG_OF_PERICENTER = 147.5132
MEAN_ANOMALY   = 213.3023

EPHEMERIS_TYPE = 0
CLASSIFICATION_TYPE = U
NORAD_CAT_ID   = 67586
ELEMENT_SET_NO = 999
REV_AT_EPOCH   = 325
BSTAR          = .62681E-2
MEAN_MOTION_DOT = .126144E-2
MEAN_MOTION_DDOT = 0

CCSDS_OMM_VERS = 2.0
CREATION_DATE  = 
ORIGINATOR     = 

OBJECT_NAME    = CZ-2C DEB
OBJECT_ID      = 2026-009D
CENTER_NAME    = EARTH
REF_FRAME      = TEME
TIME_SYSTEM    = UTC
MEAN_ELEMENT_THEORY = SGP/SGP4

EPOCH          = 2026-02-05T15:42:54.741600
MEAN_MOTION    = 15.13319150
ECCENTRICITY   = .0108145
INCLINATION    = 97.6728
RA_OF_ASC_NODE = 111.4798
ARG_OF_PERICENTER = 153.1374
MEAN_ANOMALY   = 207.5515

EPHEMERIS_TYPE = 0
CLASSIFICATION_TYPE = U
NORAD_CAT_ID   = 67587
ELEMENT_SET_NO = 999
REV_AT_EPOCH   = 324
BSTAR          = .4229E-2
MEAN_MOTION_DOT = .87841E-3
MEAN_MOTION_DDOT = 0

CCSDS_OMM_VERS = 2.0
CREATION_DATE  = 
ORIGINATOR     = 

OBJECT_NAME    = NAVSTAR 85 (USA 581)
OBJECT_ID      = 2026-017A
CENTER_NAME    = EARTH
REF_FRAME      = TEME
TIME_SYSTEM    = UTC
MEAN_ELEMENT_THEORY = SGP/SGP4

EPOCH          = 2026-02-05T01:48:20.280672
MEAN_MOTION    = 2.00758640
ECCENTRICITY   = .002009
INCLINATION    = 55.8950
RA_OF_ASC_NODE = 94.6111
ARG_OF_PERICENTER = 279.5353
MEAN_ANOMALY   = 80.3070

EPHEMERIS_TYPE = 0
CLASSIFICATION_TYPE = U
NORAD_CAT_ID   = 67588
ELEMENT_SET_NO = 999
REV_AT_EPOCH   = 42897
BSTAR          = 0
MEAN_MOTION_DOT = -.19E-6
MEAN_MOTION_DDOT = 0

CCSDS_OMM_VERS = 2.0
CREATION_DATE  = 
ORIGINATOR     = 

OBJECT_NAME    = STARLINK-36641
OBJECT_ID      = 2026-018A
CENTER_NAME    = EARTH
REF_FRAME      = TEME
TIME_SYSTEM    = UTC
MEAN_ELEMENT_THEORY = SGP/SGP4

EPOCH          = 2026-02-05T22:00:03.000096
MEAN_MOTION    = 15.94481408
ECCENTRICITY   = .0001601
INCLINATION    = 97.2797
RA_OF_ASC_NODE = 101.0098
ARG_OF_PERICENTER = 68.0187
MEAN_ANOMALY   = 32.2006

EPHEMERIS_TYPE = 0
CLASSIFICATION_TYPE = U
NORAD_CAT_ID   = 67589
ELEMENT_SET_NO = 999
REV_AT_EPOCH   = 223
BSTAR          = -.48590015E-2
MEAN_MOTION_DOT = -.1804689E-1
MEAN_MOTION_DDOT = .92270126E-3

CCSDS_OMM_VERS = 2.0
CREATION_DATE  = 
ORIGINATOR     = 

OBJECT_NAME    = STARLINK-36376
OBJECT_ID      = 2026-018B
CENTER_NAME    = EARTH
REF_FRAME      = TEME
TIME_SYSTEM    = UTC
MEAN_ELEMENT_THEORY = SGP/SGP4

EPOCH          = 2026-02-05T22:00:03.000096
MEAN_MOTION    = 15.94656375
ECCENTRICITY   = .00017514
INCLINATION    = 97.2794
RA_OF_ASC_NODE = 101.0109
ARG_OF_PERICENTER = 63.4881
MEAN_ANOMALY   = 39.3974

EPHEMERIS_TYPE = 0
CLASSIFICATION_TYPE = U
NORAD_CAT_ID   = 67590
ELEMENT_SET_NO = 999
REV_AT_EPOCH   = 228
BSTAR          = -.48354409E-2
MEAN_MOTION_DOT = -.1812578E-1
MEAN_MOTION_DDOT = .93198073E-3

CCSDS_OMM_VERS = 2.0
CREATION_DATE  = 
ORIGINATOR     = 

OBJECT_NAME    = STARLINK-36391
OBJECT_ID      = 2026-018C
CENTER_NAME    = EARTH
REF_FRAME      = TEME
TIME_SYSTEM    = UTC
MEAN_ELEMENT_THEORY = SGP/SGP4

EPOCH          = 2026-02-05T22:00:03.000096
MEAN_MOTION    = 15.94858631
ECCENTRICITY   = .00015861
INCLINATION    = 97.2795
RA_OF_ASC_NODE = 101.0124
ARG_OF_PERICENTER = 66.5715
MEAN_ANOMALY   = 39.4305

EPHEMERIS_TYPE = 0
CLASSIFICATION_TYPE = U
NORAD_CAT_ID   = 67591
ELEMENT_SET_NO = 999
REV_AT_EPOCH   = 228
BSTAR          = -.47587831E-2
MEAN_MOTION_DOT = -.1803123E-1
MEAN_MOTION_DDOT = .92488848E-3

CCSDS_OMM_VERS = 2.0
CREATION_DATE  = 
ORIGINATOR     = 

OBJECT_NAME    = STARLINK-36603
OBJECT_ID      = 2026-018D
CENTER_NAME    = EARTH
REF_FRAME      = TEME
TIME_SYSTEM    = UTC
MEAN_ELEMENT_THEORY = SGP/SGP4

EPOCH          = 2026-02-05T22:00:03.000096
MEAN_MOTION    = 15.94988894
ECCENTRICITY   = .00016961
INCLINATION    = 97.2793
RA_OF_ASC_NODE = 101.0132
ARG_OF_PERICENTER = 69.8312
MEAN_ANOMALY   = 38.3572

EPHEMERIS_TYPE = 0
CLASSIFICATION_TYPE = U
NORAD_CAT_ID   = 67592
ELEMENT_SET_NO = 999
REV_AT_EPOCH   = 224
BSTAR          = -.47024207E-2
MEAN_MOTION_DOT = -.1794269E-1
MEAN_MOTION_DDOT = .9176821E-3

CCSDS_OMM_VERS = 2.0
CREATION_DATE  = 
ORIGINATOR     = 

OBJECT_NAME    = STARLINK-36634
OBJECT_ID      = 2026-018E
CENTER_NAME    = EARTH
REF_FRAME      = TEME
TIME_SYSTEM    = UTC
MEAN_ELEMENT_THEORY = SGP/SGP4

EPOCH          = 2026-02-05T22:00:03.000096
MEAN_MOTION    = 15.95202391
ECCENTRICITY   = .00018163
INCLINATION    = 97.2791
RA_OF_ASC_NODE = 101.0146
ARG_OF_PERICENTER = 65.5462
MEAN_ANOMALY   = 45.8641

EPHEMERIS_TYPE = 0
CLASSIFICATION_TYPE = U
NORAD_CAT_ID   = 67593
ELEMENT_SET_NO = 999
REV_AT_EPOCH   = 223
BSTAR          = -.46388793E-2
MEAN_MOTION_DOT = -.1790326E-1
MEAN_MOTION_DDOT = .9159945E-3

CCSDS_OMM_VERS = 2.0
CREATION_DATE  = 
ORIGINATOR     = 

OBJECT_NAME    = STARLINK-36638
OBJECT_ID      = 2026-018F
CENTER_NAME    = EARTH
REF_FRAME      = TEME
TIME_SYSTEM    = UTC
MEAN_ELEMENT_THEORY = SGP/SGP4

EPOCH          = 2026-02-05T22:00:03.000096
MEAN_MOTION    = 15.95401029
ECCENTRICITY   = .00017878
INCLINATION    = 97.2789
RA_OF_ASC_NODE = 101.0160
ARG_OF_PERICENTER = 65.9752
MEAN_ANOMALY   = 48.5261

EPHEMERIS_TYPE = 0
CLASSIFICATION_TYPE = U
NORAD_CAT_ID   = 67594
ELEMENT_SET_NO = 999
REV_AT_EPOCH   = 223
BSTAR          = -.45669342E-2
MEAN_MOTION_DOT = -.1781424E-1
MEAN_MOTION_DDOT = .9094239E-3

CCSDS_OMM_VERS = 2.0
CREATION_DATE  = 
ORIGINATOR     = 

OBJECT_NAME    = STARLINK-36628
OBJECT_ID      = 2026-018G
CENTER_NAME    = EARTH
REF_FRAME      = TEME
TIME_SYSTEM    = UTC
MEAN_ELEMENT_THEORY = SGP/SGP4

EPOCH          = 2026-02-05T22:00:03.000096
MEAN_MOTION    = 15.95538117
ECCENTRICITY   = .00016693
INCLINATION    = 97.2785
RA_OF_ASC_NODE = 101.0169
ARG_OF_PERICENTER = 71.6135
MEAN_ANOMALY   = 45.2308

EPHEMERIS_TYPE = 0
CLASSIFICATION_TYPE = U
NORAD_CAT_ID   = 67595
ELEMENT_SET_NO = 999
REV_AT_EPOCH   = 223
BSTAR          = -.44803728E-2
MEAN_MOTION_DOT = -.1760716E-1
MEAN_MOTION_DDOT = .89107253E-3

