STARLINK-36419          
1 67584U 26016Z   26036.91670139 -.01731855  00000+0 -79869-2 0  9990
2 67584  97.2768  95.7757 0001688  75.8494  75.2974 15.86461003  2944
STARLINK-36560          
1 67585U 26016AA  26036.91670139 -.01729560  00000+0 -78460-2 0  9997
2 67585  97.2761  95.7789 0001590  78.5969  80.4666 15.86792981  2883
CZ-2C DEB               
1 67586U 26009C   26036.74667775  .00126144  00000+0  62681-2 0  9997
2 67586  97.2266 110.3844 0111444 147.5132 213.3023 15.11795830  3259
CZ-2C DEB               
1 67587U 26009D   26036.65480025  .00087841  00000+0  42290-2 0  9993
2 67587  97.6728 111.4798 0108145 153.1374 207.5515 15.13319150  3241
NAVSTAR 85 (USA 581)    
1 67588U 26017A   26036.07523473 -.00000019  00000+0  00000+0 0  9997
2 67588  55.8950  94.6111 0020090 279.5353  80.3070  2.00758640428975
STARLINK-36641          
1 67589U 26018A   26036.91670139 -.01804689  92270-3 -48590-2 0  9994
2 67589  97.2797 101.0098 0001601  68.0187  32.2006 15.94481408  2239
STARLINK-36376          
1 67590U 26018B   26036.91670139 -.01812578  93198-3 -48354-2 0  9990
2 67590  97.2794 101.0109 0001751  63.4881  39.3974 15.94656375  2281
STARLINK-36391          
1 67591U 26018C   26036.91670139 -.01803123  92489-3 -47588-2 0  9997
2 67591  97.2795 101.0124 0001586  66.5715  39.4305 15.94858631  2284
STARLINK-36603          
1 67592U 26018D   26036.91670139 -.01794269  91768-3 -47024-2 0  9992
2 67592  97.2793 101.0132 0001696  69.8312  38.3572 15.94988894  2248
STARLINK-36634          
1 67593U 26018E   26036.91670139 -.01790326  91599-3 -46389-2 0  9998
2 67593  97.2791 101.0146 0001816  65.5462  45.8641 15.95202391  2236
STARLINK-36638          
1 67594U 26018F   26036.91670139 -.01781424  90942-3 -45669-2 0  9999
2 67594  97.2789 101.0160 0001787  65.9752  48.5261 15.95401029  2230
STARLINK-36628          
1 67595U 26018G   26036.91670139 -.01760716  89107-3 -44804-2 0  9992
2 67595  97.2785 101.0169 0001669  71.6135  45.2308 15.95538117  2239
